STARLINK-37108          
1 68218U 26053M   26094.23568282  .00211122  00000+0  10698-2 0  9992
2 68218  97.2830 329.8100 0001815 105.2649 254.8820 15.80952662  4097
STARLINK-37106          
1 68219U 26053N   26094.23492984  .00154706  00000+0  79056-3 0  9996
2 68219  97.2833 329.8114 0001403  66.4836 293.6580 15.80915673  4090
STARLINK-37030          
1 68220U 26053P   26094.23342633  .00168230  00000+0  85738-3 0  9994
2 68220  97.2833 329.8126 0001519  96.4593 263.6849 15.80938357  4095
STARLINK-37012          
1 68221U 26053Q   26094.23417692  .00200530  00000+0  10180-2 0  9991
2 68221  97.2832 329.8116 0001979  65.1654 294.9820 15.80940014  4094
STARLINK-37110          
1 68222U 26053R   26094.29597448  .00199291  00000+0  10118-2 0  9998
2 68222  97.2835 329.8798 0001895 111.9713 248.1757 15.80939820  4102
STARLINK-37025          
1 68223U 26053S   26094.23192365  .00204706  00000+0  10386-2 0  9997
2 68223  97.2838 329.8136 0001388 100.9667 259.1758 15.80942461  4091
STARLINK-36977          
1 68224U 26053T   26094.25002315 -.00000650  00000+0 -28221-5 0  9999
2 68224  97.2844 329.8347 0001324  81.1876  23.1994 15.79564059  4019
STARLINK-36960          
1 68225U 26053U   26094.23042279  .00155327  00000+0  79376-3 0  9996
2 68225  97.2837 329.8154 0001281  95.8232 264.3182 15.80913709  4074
STARLINK-37038          
1 68226U 26053V   26094.16561306  .00317984  00000+0  15882-2 0  9996
2 68226  97.2836 329.7500 0000805 113.1016 247.0337 15.80992833  4067
STARLINK-37083          
1 68227U 26053W   26094.16636627  .00146924  00000+0  75100-3 0  9990
2 68227  97.2835 329.7499 0001276  97.0786 263.0628 15.80930587  4059
STARLINK-37050          
1 68228U 26053X   26094.16486638  .00163018  00000+0  83165-3 0  9999
2 68228  97.2837 329.7522 0001155  94.0297 266.1104 15.80930378  4061
STARLINK-37081          
1 68229U 26053Y   26094.24577360  .00129677  00000+0  85387-3 0  9993
2 68229  97.2836 329.7958 0001185 105.0641 255.0755 15.75278730  4096
STARLINK-37100          
1 68230U 26053Z   26094.16411905  .00201031  00000+0  10207-2 0  9991
2 68230  97.2838 329.7534 0001784 102.1659 257.9809 15.80934299  4087
STARLINK-37104          
1 68231U 26053AA  26094.22666082  .00182621  00000+0  92974-3 0  9992
2 68231  97.2834 329.8207 0001215  78.4226 281.7179 15.80923882  4098
STARLINK-37027          
1 68232U 26054A   26094.25350166  .00217184  00000+0  13768-2 0  9996
2 68232  53.1599 184.8016 0001361 107.3468 252.7701 15.75372891  2816
STARLINK-37132          
1 68233U 26054B   26094.23205334  .00381185  00000+0  18408-2 0  9990
2 68233  53.1587 184.6587 0001312 134.8974 225.2155 15.80990933  2815
STARLINK-37101          
1 68234U 26054C   26094.24475192  .00242080  00000+0  15324-2 0  9997
2 68234  53.1595 184.7436 0001348  58.9771 301.1382 15.75331929  2813
STARLINK-36963          
1 68235U 26054D   26094.24929125  .00275356  00000+0  17369-2 0  9991
2 68235  53.1599 184.7731 0001536 103.4861 256.6331 15.75314236  2811
STARLINK-37127          
1 68236U 26054E   26094.25837185  .00311415  00000+0  19500-2 0  9993
2 68236  53.1593 184.8334 0001583  89.5876 270.5326 15.75376985  2816
STARLINK-37095          
1 68237U 26054F   26094.25382946  .00373947  00000+0  23210-2 0  9995
2 68237  53.1600 184.8034 0001300 110.4057 249.7104 15.75399632  2811
STARLINK-37097          
1 68238U 26054G   26094.22830616  .00401172  00000+0  19310-2 0  9993
2 68238  53.1583 184.6331 0001334  47.2053 312.9082 15.81008967  2813
STARLINK-37096          
1 68239U 26054H   26093.72106427  .00311187  00000+0  15205-2 0  9999
2 68239  53.1586 187.1577 0001026 117.1065 243.0063 15.80922737  2738
STARLINK-37092          
1 68240U 26054J   26094.25002315 -.00145883  00000+0 -96172-3 0  9994
2 68240  53.1587 184.6067 0001081  85.4173 357.9780 15.75292306  4026
STARLINK-37094          
1 68241U 26054K   26094.22605463  .00395119  00000+0  19064-2 0  9996
2 68241  53.1585 184.6185 0000988 142.1106 217.9986 15.80972812  2819
STARLINK-36356          
1 68242U 26054L   26094.25002315 -.00159175  00000+0 -10508-2 0  9993
2 68242  53.1592 184.6587 0001198  92.8153 324.8222 15.75304557  4060
STARLINK-36345          
1 68243U 26054M   26094.24896204  .00295176  00000+0  18545-2 0  9990
2 68243  53.1600 184.7707 0001028  73.6097 286.5036 15.75347916  2816
STARLINK-36310          
1 68244U 26054N   26094.28627025  .00282801  00000+0  13800-2 0  9998
2 68244  53.1586 184.2812 0001370  96.7134 263.4045 15.81028665  2829
STARLINK-36247          
1 68245U 26054P   26094.28700672  .00316933  00000+0  15391-2 0  9990
2 68245  53.1588 184.2866 0000887  54.0780 306.0325 15.81040751  2822
STARLINK-37043          
1 68246U 26054Q   26094.28551591  .00376089  00000+0  18095-2 0  9997
2 68246  53.1585 184.2758 0001118  83.6285 276.4865 15.81084191  2821
STARLINK-37044          
1 68247U 26054R   26093.65262721 -.00125387  00000+0 -65001-3 0  9997
2 68247  53.1589 187.4393 0002044  60.6198 299.5029 15.80565943  2728
STARLINK-36997          
1 68248U 26054S   26094.24442136  .00235277  00000+0  14916-2 0  9990
2 68248  53.1598 184.7400 0001227  84.0152 276.1009 15.75316344  2812
STARLINK-37141          
1 68249U 26054T   26094.25002315 -.00166880  00000+0 -11028-2 0  9999
2 68249  53.1587 184.5537 0001205  84.3394  24.8033 15.75305862  4109
STARLINK-37087          
1 68250U 26054U   26094.23567437  .00351871  00000+0  21949-2 0  9997
2 68250  53.1587 184.6820 0001044 122.8126 237.2995 15.75348189  2811
STARLINK-36274          
1 68251U 26054V   26094.24021238  .00237356  00000+0  15006-2 0  9991
2 68251  53.1593 184.7121 0001244  53.0388 307.0746 15.75375393  2818
STARLINK-37085          
1 68252U 26054W   26094.28101694  .00272505  00000+0  13309-2 0  9990
2 68252  53.1588 184.2450 0001285 110.3245 249.7916 15.81039133  2825
STARLINK-37086          
1 68253U 26054X   26094.28026601  .00254430  00000+0  12462-2 0  9991
2 68253  53.1588 184.2406 0001425 124.4840 235.6318 15.81026510  2825
STARLINK-37084          
1 68254U 26054Y   26094.27876761  .00233018  00000+0  11437-2 0  9991
2 68254  53.1587 184.2306 0001442 112.2945 247.8230 15.81040133  2829
STARLINK-37075          
1 68255U 26054Z   26094.27951910  .00385101  00000+0  18590-2 0  9990
2 68255  53.1589 184.2354 0001439 117.0439 243.0731 15.80989099  2828
STARLINK-36333          
1 68256U 26054AA  26094.27801586  .00386161  00000+0  18548-2 0  9994
2 68256  53.1583 184.2255 0001434 129.7417 230.3733 15.81095030  2829
STARLINK-36745          
1 68257U 26054AB  26094.23114001  .00200820  00000+0  12762-2 0  9999
2 68257  53.1589 184.6509 0001758  38.8346 321.2800 15.75367364  2811
STARLINK-36890          
1 68258U 26054AC  26094.27576646  .00221910  00000+0  10915-2 0  9992
2 68258  53.1588 184.2101 0001155  70.8826 289.2322 15.81025592  2829
STARLINK-36323          
1 68259U 26054AD  26094.27741767 -.00248391  00000+0 -13678-2 0  9994
2 68259  53.1587 184.2205 0000781  25.9477 334.1585 15.79624376  2824
STARLINK-37056          
1 68260U 26054AE  26094.27501699  .00317678  00000+0  15389-2 0  9998
2 68260  53.1584 184.2043 0001627  94.6913 265.4296 15.81093386  2820
TEN-KOH 2               
1 68261U 25241B   26093.95348627  .00014968  00000+0  64232-3 0  9998
2 68261  51.6395 312.7507 0004616 250.3397 109.7082 15.22898697  3596
STARLINK-37162          
1 68262U 26055A   26094.25002315  .00147136  00000+0  73922-3 0  9998
2 68262  53.1595 209.1984 0001327 126.4319 254.1042 15.80788657  3743
STARLINK-37156          
1 68263U 26055B   26094.25002315  .00156756  00000+0  78652-3 0  9992
2 68263  53.1596 209.1896 0001183 128.6026 256.2009 15.80786489  3743
STARLINK-37163          
1 68264U 26055C   26094.25002315  .00156773  00000+0  78654-3 0  9994
2 68264  53.1595 209.1710 0001178 134.1210 259.2253 15.80788325  3744
STARLINK-37133          
1 68265U 26055D   26094.25002315  .00149536  00000+0  75096-3 0  9991
2 68265  53.1595 209.1803 0001148 118.1116 270.9642 15.80790085  3740
STARLINK-37042          
1 68266U 26055E   26094.25002315  .00097577  00000+0  49335-3 0  9996
2 68266  53.1594 209.1625 0001072 115.1080 282.4949 15.80828406  3742
STARLINK-37103          
1 68267U 26055F   26094.25002315  .00076916  00000+0  39042-3 0  9995
2 68267  53.1595 209.1537 0001183 107.8029 294.0772 15.80836253  3742
STARLINK-36999          
1 68268U 26055G   26094.25002315  .00106131  00000+0  53602-3 0  9997
2 68268  53.1595 209.1448 0001262 110.5268 295.6302 15.80817530  3741
STARLINK-36962          
1 68269U 26055H   26094.25002315  .00086271  00000+0  43726-3 0  9996
2 68269  53.1595 209.1360 0001267 114.3264 296.1077 15.80823815  3746
STARLINK-37028          
1 68270U 26055J   26094.25002315 -.00077846  00000+0 -39386-3 0  9995
2 68270  53.1592 209.1180 0000783  77.7965 341.1728 15.80904120  3740
STARLINK-37029          
1 68271U 26055K   26094.25002315 -.00025631  00000+0 -12655-3 0  9991
2 68271  53.1594 209.1272 0000989  83.7040 330.9877 15.80899725  3749
STARLINK-36974          
1 68272U 26055L   26094.25002315 -.00095744  00000+0 -48596-3 0  9997
2 68272  53.1593 209.1091 0001385  86.5117 336.7194 15.80914666  3743
STARLINK-37019          
1 68273U 26055M   26094.25002315 -.00103239  00000+0 -52457-3 0  9998
2 68273  53.1593 209.0996 0001321  98.0905 329.4061 15.80921794  3742
STARLINK-37129          
1 68274U 26055N   26094.25002315 -.00021335  00000+0 -10464-3 0  9997
2 68274  53.1590 209.0912 0001640  93.1532 338.6182 15.80906661  3746
STARLINK-37123          
1 68275U 26055P   26094.25002315 -.00076573  00000+0 -38727-3 0  9994
2 68275  53.1591 209.0823 0001715  93.9825 342.0699 15.80903168  3746
STARLINK-37125          
1 68276U 26055Q   26094.25002315 -.00061992  00000+0 -31256-3 0  9994
2 68276  53.1591 209.0736 0001053  75.8703   4.4679 15.80888620  3741
